[
  {
    "COMMENT": "GENERATED VIA SPACETRACK.ORG API",
    "ORIGINATOR": "18 SPCS",
    "NORAD_CAT_ID": "43682",
    "OBJECT_NAME": "H-2A R/B",
    "OBJECT_TYPE": "ROCKET BODY",
    "CLASSIFICATION_TYPE": "U",
    "INTLDES": "18084L",
    "EPOCH": "2023-04-09 00:44:01",
    "EPOCH_MICROSECONDS": "966848",
    "MEAN_MOTION": "15.076654",
    "ECCENTRICITY": "0.0052001",
    "INCLINATION": "98.9002",
    "RA_OF_ASC_NODE": "112.3003",
    "ARG_OF_PERICENTER": "13.623",
    "MEAN_ANOMALY": "346.6384",
    "EPHEMERIS_TYPE": "0",
    "ELEMENT_SET_NO": "999",
    "REV_AT_EPOCH": "24379",
    "BSTAR": "0.00049731",
    "MEAN_MOTION_DOT": "0.00007739",
    "MEAN_MOTION_DDOT": "0",
    "FILE": "3883884",
    "TLE_LINE0": "0 H-2A R/B",
    "TLE_LINE1": "1 43682U 18084L   23099.03057832  .00007739  00000-0  49731-3 0  9998",
    "TLE_LINE2": "2 43682  98.9002 112.3003 0052001  13.6230 346.6384 15.07665400243799",
    "OBJECT_ID": "2018-084L",
    "OBJECT_NUMBER": "43682",
    "SEMIMAJOR_AXIS": "6921.473",
    "PERIOD": "95.512",
    "APOGEE": "579.330",
    "PERIGEE": "507.346",
    "DECAYED": "0"
  },
  {
    "COMMENT": "GENERATED VIA SPACETRACK.ORG API",
    "ORIGINATOR": "18 SPCS",
    "NORAD_CAT_ID": "43682",
    "OBJECT_NAME": "H-2A R/B",
    "OBJECT_TYPE": "ROCKET BODY",
    "CLASSIFICATION_TYPE": "U",
    "INTLDES": "18084L",
    "EPOCH": "2023-04-09 11:53:00",
    "EPOCH_MICROSECONDS": "969504",
    "MEAN_MOTION": "15.07672329",
    "ECCENTRICITY": "0.0051947",
    "INCLINATION": "98.9003",
    "RA_OF_ASC_NODE": "112.8376",
    "ARG_OF_PERICENTER": "12.1408",
    "MEAN_ANOMALY": "348.1054",
    "EPHEMERIS_TYPE": "0",
    "ELEMENT_SET_NO": "999",
    "REV_AT_EPOCH": "24386",
    "BSTAR": "0.00045935",
    "MEAN_MOTION_DOT": "0.00007142",
    "MEAN_MOTION_DDOT": "0",
    "FILE": "3884332",
    "TLE_LINE0": "0 H-2A R/B",
    "TLE_LINE1": "1 43682U 18084L   23099.49515011  .00007142  00000-0  45935-3 0  9996",
    "TLE_LINE2": "2 43682  98.9003 112.8376 0051947  12.1408 348.1054 15.07672329243864",
    "OBJECT_ID": "2018-084L",
    "OBJECT_NUMBER": "43682",
    "SEMIMAJOR_AXIS": "6921.452",
    "PERIOD": "95.511",
    "APOGEE": "579.272",
    "PERIGEE": "507.362",
    "DECAYED": "0"
  },
  {
    "COMMENT": "GENERATED VIA SPACETRACK.ORG API",
    "ORIGINATOR": "18 SPCS",
    "NORAD_CAT_ID": "43682",
    "OBJECT_NAME": "H-2A R/B",
    "OBJECT_TYPE": "ROCKET BODY",
    "CLASSIFICATION_TYPE": "U",
    "INTLDES": "18084L",
    "EPOCH": "2023-04-09 18:15:17",
    "EPOCH_MICROSECONDS": "458272",
    "MEAN_MOTION": "15.07676989",
    "ECCENTRICITY": "0.0051904",
    "INCLINATION": "98.9002",
    "RA_OF_ASC_NODE": "113.1447",
    "ARG_OF_PERICENTER": "11.2827",
    "MEAN_ANOMALY": "348.9547",
    "EPHEMERIS_TYPE": "0",
    "ELEMENT_SET_NO": "999",
    "REV_AT_EPOCH": "24390",
    "BSTAR": "0.0004928",
    "MEAN_MOTION_DOT": "0.0000767",
    "MEAN_MOTION_DDOT": "0",
    "FILE": "3884641",
    "TLE_LINE0": "0 H-2A R/B",
    "TLE_LINE1": "1 43682U 18084L   23099.76061873  .00007670  00000-0  49280-3 0  9991",
    "TLE_LINE2": "2 43682  98.9002 113.1447 0051904  11.2827 348.9547 15.07676989243900",
    "OBJECT_ID": "2018-084L",
    "OBJECT_NUMBER": "43682",
    "SEMIMAJOR_AXIS": "6921.438",
    "PERIOD": "95.511",
    "APOGEE": "579.228",
    "PERIGEE": "507.378",
    "DECAYED": "0"
  },
  {
    "COMMENT": "GENERATED VIA SPACETRACK.ORG API",
    "ORIGINATOR": "18 SPCS",
    "NORAD_CAT_ID": "43682",
    "OBJECT_NAME": "H-2A R/B",
    "OBJECT_TYPE": "ROCKET BODY",
    "CLASSIFICATION_TYPE": "U",
    "INTLDES": "18084L",
    "EPOCH": "2023-04-10 00:37:33",
    "EPOCH_MICROSECONDS": "875328",
    "MEAN_MOTION": "15.07682125",
    "ECCENTRICITY": "0.0051877",
    "INCLINATION": "98.9002",
    "RA_OF_ASC_NODE": "113.4517",
    "ARG_OF_PERICENTER": "10.4162",
    "MEAN_ANOMALY": "349.8124",
    "EPHEMERIS_TYPE": "0",
    "ELEMENT_SET_NO": "999",
    "REV_AT_EPOCH": "24394",
    "BSTAR": "0.00051973",
    "MEAN_MOTION_DOT": "0.00008095",
    "MEAN_MOTION_DDOT": "0",
    "FILE": "3885195",
    "TLE_LINE0": "0 H-2A R/B",
    "TLE_LINE1": "1 43682U 18084L   23100.02608652  .00008095  00000-0  51973-3 0  9999",
    "TLE_LINE2": "2 43682  98.9002 113.4517 0051877  10.4162 349.8124 15.07682125243947",
    "OBJECT_ID": "2018-084L",
    "OBJECT_NUMBER": "43682",
    "SEMIMAJOR_AXIS": "6921.422",
    "PERIOD": "95.511",
    "APOGEE": "579.193",
    "PERIGEE": "507.381",
    "DECAYED": "0"
  },
  {
    "COMMENT": "GENERATED VIA SPACETRACK.ORG API",
    "ORIGINATOR": "18 SPCS",
    "NORAD_CAT_ID": "43682",
    "OBJECT_NAME": "H-2A R/B",
    "OBJECT_TYPE": "ROCKET BODY",
    "CLASSIFICATION_TYPE": "U",
    "INTLDES": "18084L",
    "EPOCH": "2023-04-10 18:08:48",
    "EPOCH_MICROSECONDS": "662592",
    "MEAN_MOTION": "15.07694819",
    "ECCENTRICITY": "0.0051777",
    "INCLINATION": "98.9003",
    "RA_OF_ASC_NODE": "114.2962",
    "ARG_OF_PERICENTER": "8.0286",
    "MEAN_ANOMALY": "352.1755",
    "EPHEMERIS_TYPE": "0",
    "ELEMENT_SET_NO": "999",
    "REV_AT_EPOCH": "24405",
    "BSTAR": "0.00055447",
    "MEAN_MOTION_DOT": "0.00008645",
    "MEAN_MOTION_DDOT": "0",
    "FILE": "3885363",
    "TLE_LINE0": "0 H-2A R/B",
    "TLE_LINE1": "1 43682U 18084L   23100.75611878  .00008645  00000-0  55447-3 0  9994",
    "TLE_LINE2": "2 43682  98.9003 114.2962 0051777   8.0286 352.1755 15.07694819244053",
    "OBJECT_ID": "2018-084L",
    "OBJECT_NUMBER": "43682",
    "SEMIMAJOR_AXIS": "6921.383",
    "PERIOD": "95.510",
    "APOGEE": "579.085",
    "PERIGEE": "507.411",
    "DECAYED": "0"
  },
  {
    "COMMENT": "GENERATED VIA SPACETRACK.ORG API",
    "ORIGINATOR": "18 SPCS",
    "NORAD_CAT_ID": "43682",
    "OBJECT_NAME": "H-2A R/B",
    "OBJECT_TYPE": "ROCKET BODY",
    "CLASSIFICATION_TYPE": "U",
    "INTLDES": "18084L",
    "EPOCH": "2023-04-11 11:40:02",
    "EPOCH_MICROSECONDS": "925408",
    "MEAN_MOTION": "15.07707037",
    "ECCENTRICITY": "0.0051702",
    "INCLINATION": "98.9005",
    "RA_OF_ASC_NODE": "115.1404",
    "ARG_OF_PERICENTER": "5.6172",
    "MEAN_ANOMALY": "354.562",
    "EPHEMERIS_TYPE": "0",
    "ELEMENT_SET_NO": "999",
    "REV_AT_EPOCH": "24416",
    "BSTAR": "0.00053026",
    "MEAN_MOTION_DOT": "0.00008265",
    "MEAN_MOTION_DDOT": "0",
    "FILE": "3885783",
    "TLE_LINE0": "0 H-2A R/B",
    "TLE_LINE1": "1 43682U 18084L   23101.48614497  .00008265  00000-0  53026-3 0  9994",
    "TLE_LINE2": "2 43682  98.9005 115.1404 0051702   5.6172 354.5620 15.07707037244167",
    "OBJECT_ID": "2018-084L",
    "OBJECT_NUMBER": "43682",
    "SEMIMAJOR_AXIS": "6921.346",
    "PERIOD": "95.509",
    "APOGEE": "578.995",
    "PERIGEE": "507.426",
    "DECAYED": "0"
  },
  {
    "COMMENT": "GENERATED VIA SPACETRACK.ORG API",
    "ORIGINATOR": "18 SPCS",
    "NORAD_CAT_ID": "43682",
    "OBJECT_NAME": "H-2A R/B",
    "OBJECT_TYPE": "ROCKET BODY",
    "CLASSIFICATION_TYPE": "U",
    "INTLDES": "18084L",
    "EPOCH": "2023-04-11 18:02:18",
    "EPOCH_MICROSECONDS": "887136",
    "MEAN_MOTION": "15.0771132",
    "ECCENTRICITY": "0.0051667",
    "INCLINATION": "98.9005",
    "RA_OF_ASC_NODE": "115.4475",
    "ARG_OF_PERICENTER": "4.7264",
    "MEAN_ANOMALY": "355.4437",
    "EPHEMERIS_TYPE": "0",
    "ELEMENT_SET_NO": "999",
    "REV_AT_EPOCH": "24420",
    "BSTAR": "0.00053096",
    "MEAN_MOTION_DOT": "0.00008277",
    "MEAN_MOTION_DDOT": "0",
    "FILE": "3885919",
    "TLE_LINE0": "0 H-2A R/B",
    "TLE_LINE1": "1 43682U 18084L   23101.75160749  .00008277  00000-0  53096-3 0  9990",
    "TLE_LINE2": "2 43682  98.9005 115.4475 0051667   4.7264 355.4437 15.07711320244201",
    "OBJECT_ID": "2018-084L",
    "OBJECT_NUMBER": "43682",
    "SEMIMAJOR_AXIS": "6921.332",
    "PERIOD": "95.509",
    "APOGEE": "578.958",
    "PERIGEE": "507.437",
    "DECAYED": "0"
  },
  {
    "COMMENT": "GENERATED VIA SPACETRACK.ORG API",
    "ORIGINATOR": "18 SPCS",
    "NORAD_CAT_ID": "43682",
    "OBJECT_NAME": "H-2A R/B",
    "OBJECT_TYPE": "ROCKET BODY",
    "CLASSIFICATION_TYPE": "U",
    "INTLDES": "18084L",
    "EPOCH": "2023-04-12 11:33:32",
    "EPOCH_MICROSECONDS": "439744",
    "MEAN_MOTION": "15.07722177",
    "ECCENTRICITY": "0.005158",
    "INCLINATION": "98.9004",
    "RA_OF_ASC_NODE": "116.2918",
    "ARG_OF_PERICENTER": "2.2643",
    "MEAN_ANOMALY": "357.8804",
    "EPHEMERIS_TYPE": "0",
    "ELEMENT_SET_NO": "999",
    "REV_AT_EPOCH": "24431",
    "BSTAR": "0.00045577",
    "MEAN_MOTION_DOT": "0.00007092",
    "MEAN_MOTION_DDOT": "0",
    "FILE": "3886349",
    "TLE_LINE0": "0 H-2A R/B",
    "TLE_LINE1": "1 43682U 18084L   23102.48162546  .00007092  00000-0  45577-3 0  9997",
    "TLE_LINE2": "2 43682  98.9004 116.2918 0051580   2.2643 357.8804 15.07722177244317",
    "OBJECT_ID": "2018-084L",
    "OBJECT_NUMBER": "43682",
    "SEMIMAJOR_AXIS": "6921.299",
    "PERIOD": "95.508",
    "APOGEE": "578.864",
    "PERIGEE": "507.464",
    "DECAYED": "0"
  },
  {
    "COMMENT": "GENERATED VIA SPACETRACK.ORG API",
    "ORIGINATOR": "18 SPCS",
    "NORAD_CAT_ID": "43682",
    "OBJECT_NAME": "H-2A R/B",
    "OBJECT_TYPE": "ROCKET BODY",
    "CLASSIFICATION_TYPE": "U",
    "INTLDES": "18084L",
    "EPOCH": "2023-04-13 06:40:19",
    "EPOCH_MICROSECONDS": "397856",
    "MEAN_MOTION": "15.07735454",
    "ECCENTRICITY": "0.0051486",
    "INCLINATION": "98.9003",
    "RA_OF_ASC_NODE": "117.2129",
    "ARG_OF_PERICENTER": "359.5765",
    "MEAN_ANOMALY": "0.5406",
    "EPHEMERIS_TYPE": "0",
    "ELEMENT_SET_NO": "999",
    "REV_AT_EPOCH": "24443",
    "BSTAR": "0.00048422",
    "MEAN_MOTION_DOT": "0.00007543",
    "MEAN_MOTION_DDOT": "0",
    "FILE": "3886564",
    "TLE_LINE0": "0 H-2A R/B",
    "TLE_LINE1": "1 43682U 18084L   23103.27800229  .00007543  00000-0  48422-3 0  9995",
    "TLE_LINE2": "2 43682  98.9003 117.2129 0051486 359.5765   0.5406 15.07735454244434",
    "OBJECT_ID": "2018-084L",
    "OBJECT_NUMBER": "43682",
    "SEMIMAJOR_AXIS": "6921.259",
    "PERIOD": "95.507",
    "APOGEE": "578.758",
    "PERIGEE": "507.489",
    "DECAYED": "0"
  }
]